{
    "links": {
        "self": "http://www.neowsapp.com/rest/v1/neo/3843111?api_key=iIulBulltgU6a56xZRHN4H3l9WmuAYTsLGpBGhQ2"
    },
    "id": "3843111",
    "neo_reference_id": "3843111",
    "name": "(2019 MY3)",
    "designation": "2019 MY3",
    "nasa_jpl_url": "http://ssd.jpl.nasa.gov/sbdb.cgi?sstr=3843111",
    "absolute_magnitude_h": 25.0,
    "estimated_diameter": {
        "kilometers": {
            "estimated_diameter_min": 0.02658,
            "estimated_diameter_max": 0.0594346868
        },
        "meters": {
            "estimated_diameter_min": 26.58,
            "estimated_diameter_max": 59.4346868419
        },
        "miles": {
            "estimated_diameter_min": 0.0165160412,
            "estimated_diameter_max": 0.0369309908
        },
        "feet": {
            "estimated_diameter_min": 87.2047272,
            "estimated_diameter_max": 194.9956979785
        }
    },
    "is_potentially_hazardous_asteroid": false,
    "close_approach_data": [
        {
            "close_approach_date": "1941-08-25",
            "close_approach_date_full": "1941-Aug-25 01:41",
            "epoch_date_close_approach": -894752340000,
            "relative_velocity": {
                "kilometers_per_second": "17.9668254272",
                "kilometers_per_hour": "64680.5715378872",
                "miles_per_hour": "40189.9917980833"
            },
            "miss_distance": {
                "astronomical": "0.4376354436",
                "lunar": "170.2401875604",
                "kilometers": "65469330.199065132",
                "miles": "40680755.3940055416"
            },
            "orbiting_body": "Earth"
        },
        {
            "close_approach_date": "1944-06-08",
            "close_approach_date_full": "1944-Jun-08 13:24",
            "epoch_date_close_approach": -806754960000,
            "relative_velocity": {
                "kilometers_per_second": "10.3734648982",
                "kilometers_per_hour": "37344.4736335679",
                "miles_per_hour": "23204.4036308133"
            },
            "miss_distance": {
                "astronomical": "0.1811337211",
                "lunar": "70.4610175079",
                "kilometers": "27097218.861734057",
                "miles": "16837431.0386297066"
            },
            "orbiting_body": "Earth"
        },
        {
            "close_approach_date": "2019-07-01",
            "close_approach_date_full": "2019-Jul-01 20:00",
            "epoch_date_close_approach": 1562011200000,
            "relative_velocity": {
                "kilometers_per_second": "6.6917459046",
                "kilometers_per_hour": "24090.2852566777",
                "miles_per_hour": "14968.7664140729"
            },
            "miss_distance": {
                "astronomical": "0.0515634729",
                "lunar": "20.0581909581",
                "kilometers": "7713785.715642723",
                "miles": "4793124.1835786574"
            },
            "orbiting_body": "Earth"
        }
    ],
    "orbital_data": {
        "orbit_id": "9",
        "orbit_determination_date": "2019-08-11 05:25:25",
        "first_observation_date": "2019-06-28",
        "last_observation_date": "2019-08-08",
        "data_arc_in_days": 41,
        "observations_used": 33,
        "orbit_uncertainty": "7",
        "minimum_orbit_intersection": ".047062",
        "jupiter_tisserand_invariant": "3.664",
        "epoch_osculation": "2459000.5",
        "eccentricity": ".4747884547547351",
        "semi_major_axis": "2.023704873391788",
        "inclination": "5.235685425152141",
        "ascending_node_longitude": "281.4885132786498",
        "orbital_period": "1051.524008937584",
        "perihelion_distance": "1.062873163674474",
        "perihelion_argument": "5.800300862502879",
        "aphelion_distance": "2.984536583109102",
        "perihelion_time": "2458672.626027146326",
        "mean_anomaly": "112.2510082737721",
        "mean_motion": ".342360228525575",
        "equinox": "J2000",
        "orbit_class": {
            "orbit_class_type": "AMO",
            "orbit_class_description": "Near-Earth asteroid orbits similar to that of 1221 Amor",
            "orbit_class_range": "1.017 AU < q (perihelion) < 1.3 AU"
        }
    },
    "is_sentry_object": false
}